[{"OBJECT_ID":"2008-018C","OBJECT_NAME":"ARIANE 5 R/B","NORAD_CAT_ID":"32769","OBJECT_TYPE":"ROCKET BODY","PERIOD":"570.054","INCLINATION":"1.5653","APOGEE":"32533.685","PERIGEE":"257.876","ECCENTRICITY":"0.7086135","MEAN_MOTION":"2.52607471","TLE_LINE1":"1 32769U 08018C   16238.76622179 +.00000898 +00000-0 +28433-3 0  9992","TLE_LINE2":"2 32769 001.5653 096.4051 7086135 347.2024 001.6388 02.52607471072881","LAUNCH_DATE":"2008-04-18","LAUNCH_SITE":"FRENCH GUIANA","OWNER":"FRANCE","ORBIT_TYPE":"Highly Elliptical Orbit","OPERATIONAL_STATUS":"N/A, derelict rocket body","satInfo":{"lng":128.53188642701616,"lat":3.1201952063295795,"elevation":-7.525429683369681,"azimuth":186.4681135729838,"range":34373.84859073198,"height":27750.17432060783,"velocity":2.3975622240263967},"x":217,"y":173},{"OBJECT_ID":"2008-022A","OBJECT_NAME":"AMOS 3","NORAD_CAT_ID":"32794","OBJECT_TYPE":"PAYLOAD","PERIOD":"1436.077","INCLINATION":"0.0446","APOGEE":"35791.158","PERIGEE":"35781.292","ECCENTRICITY":"0.000117","MEAN_MOTION":"1.00273111","TLE_LINE1":"1 32794U 08022A   16239.13452203 -.00000062  00000-0  00000+0 0  9996","TLE_LINE2":"2 32794   0.0446 250.0947 0001170 275.1736 213.9734  1.00273111 30534","LAUNCH_DATE":"2008-04-28","LAUNCH_SITE":"TYURATAM MISSILE AND SPACE COMPLEX","OWNER":"ISRAEL","ORBIT_TYPE":"Geosynchronous","OPERATIONAL_STATUS":"Operational","satInfo":{"lng":31.757669822534673,"lat":2.0914826164139084,"elevation":-6.520279590476954,"azimuth":283.2423301774653,"range":42436.99649277748,"height":35812.443037833254,"velocity":3.0736406041619126},"x":188,"y":-305},{"OBJECT_ID":"2008-024A","OBJECT_NAME":"GALAXY 18","NORAD_CAT_ID":"32951","OBJECT_TYPE":"PAYLOAD","PERIOD":"1436.095","INCLINATION":"0.0085","APOGEE":"35799.195","PERIGEE":"35773.930","ECCENTRICITY":"0.0002996","MEAN_MOTION":"1.00271906","TLE_LINE1":"1 32951U 08024A   16238.41365881 -.00000001  00000-0  00000+0 0  9991","TLE_LINE2":"2 32951   0.0085 133.6454 0002996  24.6243 201.7375  1.00271906 30169","LAUNCH_DATE":"2008-05-21","LAUNCH_SITE":"SEA LAUNCH","OWNER":"UNITED STATES OF AMERICA","ORBIT_TYPE":"Geosynchronous","OPERATIONAL_STATUS":"Operational","satInfo":{"lng":-107.62514582226416,"lat":1.6259585842477424,"elevation":-6.986921812896517,"azimuth":62.62514582226408,"range":42440.4036953396,"height":35764.05271143379,"velocity":3.0759745792916937},"x":-341,"y":108},{"OBJECT_ID":"2008-028A","OBJECT_NAME":"CHINASAT 9","NORAD_CAT_ID":"33051","OBJECT_TYPE":"PAYLOAD","PERIOD":"1436.128","INCLINATION":"0.0071","APOGEE":"35804.645","PERIGEE":"35769.774","ECCENTRICITY":"0.0004135","MEAN_MOTION":"1.00269598","TLE_LINE1":"1 33051U 08028A   16238.75257653 -.00000274 +00000-0 +00000-0 0  9994","TLE_LINE2":"2 33051 000.0071 174.1902 0004135 340.4490 182.9119 01.00269598030085","LAUNCH_DATE":"2008-06-09","LAUNCH_SITE":"Xichang Space Center, China","OWNER":"PEOPLES REPUBLIC OF CHINA","ORBIT_TYPE":"Geosynchronous","OPERATIONAL_STATUS":"Operational","satInfo":{"lng":58.12355025720366,"lat":-0.061146047124927785,"elevation":-8.630417007332888,"azimuth":256.87644974279635,"range":42663.480280109725,"height":35802.28258154587,"velocity":3.073514279839234},"x":304,"y":-189},{"OBJECT_ID":"2008-030A","OBJECT_NAME":"SKYNET 5C","NORAD_CAT_ID":"33055","OBJECT_TYPE":"PAYLOAD","PERIOD":"1436.098","INCLINATION":"0.0627","APOGEE":"35806.775","PERIGEE":"35766.499","ECCENTRICITY":"0.0004776","MEAN_MOTION":"1.00271641","TLE_LINE1":"1 33055U 08030A   16239.25577291 -.00000168  00000-0  00000+0 0  9991","TLE_LINE2":"2 33055   0.0627 359.9648 0004776 177.9123 231.2989  1.00271641 29985","LAUNCH_DATE":"2008-06-12","LAUNCH_SITE":"FRENCH GUIANA","OWNER":"UNITED KINGDOM","ORBIT_TYPE":"Geosynchronous","OPERATIONAL_STATUS":"Operational","satInfo":{"lng":-109.67620043066566,"lat":-0.013374905289059028,"elevation":-8.597180514270867,"azimuth":64.67620043066562,"range":42592.041266498665,"height":35735.33009420123,"velocity":3.0772592226212434},"x":-336,"y":120},{"OBJECT_ID":"2008-030B","OBJECT_NAME":"TURKSAT 3A","NORAD_CAT_ID":"33056","OBJECT_TYPE":"PAYLOAD","PERIOD":"1436.101","INCLINATION":"0.0408","APOGEE":"35808.535","PERIGEE":"35764.827","ECCENTRICITY":"0.0005183","MEAN_MOTION":"1.00271485","TLE_LINE1":"1 33056U 08030B   16239.11659194  .00000118  00000-0  00000+0 0  9994","TLE_LINE2":"2 33056   0.0408 155.1937 0005183   7.1477 256.4039  1.00271485 30162","LAUNCH_DATE":"2008-06-12","LAUNCH_SITE":"FRENCH GUIANA","OWNER":"TURKEY","ORBIT_TYPE":"Geosynchronous","OPERATIONAL_STATUS":"Operational","satInfo":{"lng":99.70657729348956,"lat":-1.0797579525000105,"elevation":-9.625897992709705,"azimuth":215.29342270651043,"range":42765.41335172422,"height":35792.64371092049,"velocity":3.0737729141697283},"x":353,"y":60},{"OBJECT_ID":"2008-030C","OBJECT_NAME":"ARIANE 5 R/B","NORAD_CAT_ID":"33057","OBJECT_TYPE":"ROCKET BODY","PERIOD":"594.904","INCLINATION":"1.3242","APOGEE":"33824.189","PERIGEE":"281.625","ECCENTRICITY":"0.7157719","MEAN_MOTION":"2.42055716","TLE_LINE1":"1 33057U 08030C   16238.68163882 +.00000385 +00000-0 +19600-3 0  9996","TLE_LINE2":"2 33057 001.3242 222.5683 7157719 210.1247 073.8243 02.42055716070279","LAUNCH_DATE":"2008-06-12","LAUNCH_SITE":"FRENCH GUIANA","OWNER":"FRANCE","ORBIT_TYPE":"Highly Elliptical Orbit","OPERATIONAL_STATUS":"N/A, derelict rocket body","satInfo":{"lng":111.95489162646972,"lat":-0.9975535625552107,"elevation":-10.001206108594362,"azimuth":203.04510837353027,"range":40610.351432778676,"height":33621.159334064636,"velocity":1.6951037506317375},"x":312,"y":126},{"OBJECT_ID":"2008-034A","OBJECT_NAME":"INTELSAT 25(PROTOSTAR 1)","NORAD_CAT_ID":"33153","OBJECT_TYPE":"PAYLOAD","PERIOD":"1436.084","INCLINATION":"0.0551","APOGEE":"35797.709","PERIGEE":"35775.008","ECCENTRICITY":"0.0002692","MEAN_MOTION":"1.00272634","TLE_LINE1":"1 33153U 08034A   16238.16019353 -.00000250  00000-0  00000+0 0  9995","TLE_LINE2":"2 33153   0.0551 280.9420 0002692 232.7902 206.2761  1.00272634 29704","LAUNCH_DATE":"2008-07-07","LAUNCH_SITE":"FRENCH GUIANA","OWNER":"INTERNATIONAL TELECOMMUNICATIONS SATELLITE ORGANIZATION (INTELSAT)","ORBIT_TYPE":"Geosynchronous","OPERATIONAL_STATUS":"Operational","satInfo":{"lng":-46.93625885040205,"lat":-0.8045326096140551,"elevation":-9.362741156194014,"azimuth":1.9362588504020233,"range":42710.30677507859,"height":35767.34064054325,"velocity":3.0755413657909623},"x":-261,"y":-244},{"OBJECT_ID":"2008-034B","OBJECT_NAME":"BADR 6","NORAD_CAT_ID":"33154","OBJECT_TYPE":"PAYLOAD","PERIOD":"1436.090","INCLINATION":"0.0633","APOGEE":"35799.892","PERIGEE":"35773.059","ECCENTRICITY":"0.0003182","MEAN_MOTION":"1.00272217","TLE_LINE1":"1 33154U 08034B   16239.11923657  .00000116  00000-0  00000+0 0  9993","TLE_LINE2":"2 33154   0.0633  43.2804 0003182  78.9263 281.4909  1.00272217 29848","LAUNCH_DATE":"2008-07-07","LAUNCH_SITE":"FRENCH GUIANA","OWNER":"ARAB SATELLITE COMMUNICATIONS ORGANIZATION","ORBIT_TYPE":"Geosynchronous","OPERATIONAL_STATUS":"Operational","satInfo":{"lng":62.82920090597658,"lat":-0.8486473084667597,"elevation":-9.405006495271577,"azimuth":252.17079909402344,"range":42718.77391065529,"height":35771.02500480222,"velocity":3.074862085236612},"x":318,"y":-163},{"OBJECT_ID":"2008-034D","OBJECT_NAME":"ARIANE 5 R/B","NORAD_CAT_ID":"33156","OBJECT_TYPE":"ROCKET BODY","PERIOD":"605.312","INCLINATION":"1.8612","APOGEE":"34352.692","PERIGEE":"298.124","ECCENTRICITY":"0.7183434","MEAN_MOTION":"2.37893649","TLE_LINE1":"1 33156U 08034D   16238.44348837 +.00000213 +00000-0 +14209-3 0  9999","TLE_LINE2":"2 33156 001.8612 276.0135 7183434 149.1443 287.2222 02.37893649069054","LAUNCH_DATE":"2008-07-07","LAUNCH_SITE":"FRENCH GUIANA","OWNER":"FRANCE","ORBIT_TYPE":"Highly Elliptical Orbit","OPERATIONAL_STATUS":"N/A, derelict rocket body","satInfo":{"lng":64.10188920120147,"lat":-0.8194180434828225,"elevation":-11.655178682647731,"azimuth":250.8981107987985,"range":33808.788287209114,"height":26736.935020492983,"velocity":2.6892997854478744},"x":241,"y":-117},{"OBJECT_ID":"2008-035A","OBJECT_NAME":"ECHOSTAR 11","NORAD_CAT_ID":"33207","OBJECT_TYPE":"PAYLOAD","PERIOD":"1436.089","INCLINATION":"0.0637","APOGEE":"35798.339","PERIGEE":"35774.575","ECCENTRICITY":"0.0002818","MEAN_MOTION":"1.00272282","TLE_LINE1":"1 33207U 08035A   16237.38034440 -.00000081  00000-0  00000+0 0  9995","TLE_LINE2":"2 33207   0.0637 279.2606 0002818 252.9134 187.8265  1.00272282 29721","LAUNCH_DATE":"2008-07-16","LAUNCH_SITE":"SEA LAUNCH","OWNER":"UNITED STATES OF AMERICA","ORBIT_TYPE":"Geosynchronous","OPERATIONAL_STATUS":"Operational","satInfo":{"lng":-104.99324164237058,"lat":-2.199493250397952,"elevation":-10.719275585695753,"azimuth":59.9932416423705,"range":42867.11889969106,"height":35771.985045795416,"velocity":3.075643751157951},"x":-346,"y":93},{"OBJECT_ID":"2008-035B","OBJECT_NAME":"BLOCK DM-SL R/B","NORAD_CAT_ID":"33208","OBJECT_TYPE":"ROCKET BODY","PERIOD":"636.514","INCLINATION":"0.2847","APOGEE":"35607.350","PERIGEE":"658.906","ECCENTRICITY":"0.7129058","MEAN_MOTION":"2.26232092","TLE_LINE1":"1 33208U 08035B   16238.37534289  .00000007  00000-0  23751-3 0  9991","TLE_LINE2":"2 33208   0.2847  74.8145 7129058 337.2592 300.9474  2.26232092 67043","LAUNCH_DATE":"2008-07-16","LAUNCH_SITE":"SEA LAUNCH","OWNER":"SEA LAUNCH DEMO","ORBIT_TYPE":"Highly Elliptical Orbit","OPERATIONAL_STATUS":"N/A, derelict rocket body","satInfo":{"lng":4.318866480060385,"lat":-3.407925354704373,"elevation":-11.940805248411225,"azimuth":310.68113351993964,"range":42751.566014145705,"height":35522.38650558486,"velocity":1.6622405316379272},"x":27,"y":-354}]